start=new Date('2022-08-14T00:00:00.000Z').valueOf();
sats=[{"OBJECT_TYPE":"PAYLOAD","INCLINATION":"53.0555","REV_AT_EPOCH":"7965","EPOCH":"2022-08-13T17:06:56.581632","BSTAR":"0.00005783200000","MEAN_MOTION":"15.06401615","TLE_LINE1":"1 47918U 21021BL  22225.71315488  .00000580  00000-0  57832-4 0  9997","PERIOD":"95.592","COUNTRY_CODE":"US","RCS_SIZE":"LARGE","SITE":"AFETR","OBJECT_ID":"2021-021BL","TIME_SYSTEM":"UTC","CLASSIFICATION_TYPE":"U","MEAN_MOTION_DOT":"0.00000580","PERIAPSIS":"546.335","NORAD_CAT_ID":"47918","GP_ID":"210162847","EPHEMERIS_TYPE":"0","MEAN_MOTION_DDOT":"0.0000000000000","DECAY_DATE":null,"ECCENTRICITY":"0.00012620","FILE":"3535825","MEAN_ELEMENT_THEORY":"SGP4","ELEMENT_SET_NO":"999","LAUNCH_DATE":"2021-03-14","REF_FRAME":"TEME","TLE_LINE2":"2 47918  53.0555   5.4063 0001262  81.9550 278.1582 15.06401615 79650","SEMIMAJOR_AXIS":"6925.344","APOAPSIS":"548.083","MEAN_ANOMALY":"278.1582","ARG_OF_PERICENTER":"81.9550","RA_OF_ASC_NODE":"5.4063","CENTER_NAME":"EARTH","OBJECT_NAME":"STARLINK-2398"},{"OBJECT_TYPE":"PAYLOAD","INCLINATION":"53.0555","REV_AT_EPOCH":"7949","BSTAR":"0.00015649000000","EPOCH":"2022-08-13T16:44:22.926048","PERIOD":"95.592","MEAN_MOTION":"15.06403198","TLE_LINE1":"1 47919U 21021BM  22225.69748757  .00002050  00000-0  15649-3 0  9997","SITE":"AFETR","COUNTRY_CODE":"US","RCS_SIZE":"LARGE","CLASSIFICATION_TYPE":"U","MEAN_MOTION_DOT":"0.00002050","OBJECT_ID":"2021-021BM","TIME_SYSTEM":"UTC","PERIAPSIS":"546.218","NORAD_CAT_ID":"47919","EPHEMERIS_TYPE":"0","MEAN_MOTION_DDOT":"0.0000000000000","GP_ID":"210162597","ECCENTRICITY":"0.00014230","FILE":"3535825","DECAY_DATE":null,"MEAN_ELEMENT_THEORY":"SGP4","LAUNCH_DATE":"2021-03-14","ELEMENT_SET_NO":"999","APOAPSIS":"548.189","ARG_OF_PERICENTER":"86.3976","MEAN_ANOMALY":"273.7175","REF_FRAME":"TEME","TLE_LINE2":"2 47919  53.0555  15.4632 0001423  86.3976 273.7175 15.06403198 79493","SEMIMAJOR_AXIS":"6925.339","OBJECT_NAME":"STARLINK-2405","CENTER_NAME":"EARTH","RA_OF_ASC_NODE":"15.4632"},{"MEAN_MOTION":"15.06396204","TLE_LINE1":"1 47977U 21024A   22225.83893898 -.00001669  00000-0 -93214-4 0  9999","PERIOD":"95.592","COUNTRY_CODE":"US","RCS_SIZE":"LARGE","SITE":"AFETR","OBJECT_ID":"2021-024A","TIME_SYSTEM":"UTC","CLASSIFICATION_TYPE":"U","MEAN_MOTION_DOT":"-0.00001669","PERIAPSIS":"546.241","OBJECT_TYPE":"PAYLOAD","INCLINATION":"53.0555","REV_AT_EPOCH":"7818","EPOCH":"2022-08-13T20:08:04.327872","BSTAR":"-0.00009321400000","MEAN_ELEMENT_THEORY":"SGP4","ELEMENT_SET_NO":"999","LAUNCH_DATE":"2021-03-24","REF_FRAME":"TEME","TLE_LINE2":"2 47977  53.0555  59.8434 0001421  88.7893 271.3259 15.06396204 78182","SEMIMAJOR_AXIS":"6925.360","APOAPSIS":"548.209","MEAN_ANOMALY":"271.3259","ARG_OF_PERICENTER":"88.7893","RA_OF_ASC_NODE":"59.8434","CENTER_NAME":"EARTH","OBJECT_NAME":"STARLINK-2087","NORAD_CAT_ID":"47977","GP_ID":"210163354","EPHEMERIS_TYPE":"0","MEAN_MOTION_DDOT":"0.0000000000000","DECAY_DATE":null,"ECCENTRICITY":"0.00014210","FILE":"3535825"},{"NORAD_CAT_ID":"47978","DECAY_DATE":null,"FILE":"3535825","ECCENTRICITY":"0.00014340","GP_ID":"210164105","EPHEMERIS_TYPE":"0","MEAN_MOTION_DDOT":"0.0000000000000","ELEMENT_SET_NO":"999","LAUNCH_DATE":"2021-03-24","MEAN_ELEMENT_THEORY":"SGP4","RA_OF_ASC_NODE":"69.7316","CENTER_NAME":"EARTH","OBJECT_NAME":"STARLINK-1647","SEMIMAJOR_AXIS":"6925.389","REF_FRAME":"TEME","TLE_LINE2":"2 47978  53.0540  69.7316 0001434  77.9211 282.1939 15.06386834 78042","APOAPSIS":"548.247","MEAN_ANOMALY":"282.1939","ARG_OF_PERICENTER":"77.9211","INCLINATION":"53.0540","OBJECT_TYPE":"PAYLOAD","EPOCH":"2022-08-13T20:38:35.456640","BSTAR":"-0.00013496000000","REV_AT_EPOCH":"7804","RCS_SIZE":"LARGE","COUNTRY_CODE":"US","SITE":"AFETR","TLE_LINE1":"1 47978U 21024B   22225.86013260 -.00002290  00000-0 -13496-3 0  9994","MEAN_MOTION":"15.06386834","PERIOD":"95.593","PERIAPSIS":"546.261","TIME_SYSTEM":"UTC","OBJECT_ID":"2021-024B","MEAN_MOTION_DOT":"-0.00002290","CLASSIFICATION_TYPE":"U"},{"OBJECT_TYPE":"PAYLOAD","INCLINATION":"53.0560","BSTAR":"0.00011164000000","EPOCH":"2022-08-13T17:33:28.753920","REV_AT_EPOCH":"7893","SITE":"AFETR","COUNTRY_CODE":"US","RCS_SIZE":"LARGE","PERIOD":"95.592","MEAN_MOTION":"15.06395877","TLE_LINE1":"1 47979U 21024C   22225.73158280  .00001382  00000-0  11164-3 0  9992","PERIAPSIS":"546.281","CLASSIFICATION_TYPE":"U","MEAN_MOTION_DOT":"0.00001382","OBJECT_ID":"2021-024C","TIME_SYSTEM":"UTC","NORAD_CAT_ID":"47979","ECCENTRICITY":"0.00013650","FILE":"3535825","DECAY_DATE":null,"MEAN_MOTION_DDOT":"0.0000000000000","EPHEMERIS_TYPE":"0","GP_ID":"210162853","LAUNCH_DATE":"2021-03-24","ELEMENT_SET_NO":"999","MEAN_ELEMENT_THEORY":"SGP4","OBJECT_NAME":"STARLINK-2325","CENTER_NAME":"EARTH","RA_OF_ASC_NODE":"5.3166","APOAPSIS":"548.172","MEAN_ANOMALY":"285.8802","ARG_OF_PERICENTER":"74.2337","REF_FRAME":"TEME","TLE_LINE2":"2 47979  53.0560   5.3166 0001365  74.2337 285.8802 15.06395877 78930","SEMIMAJOR_AXIS":"6925.361"},{"ELEMENT_SET_NO":"999","LAUNCH_DATE":"2021-03-24","MEAN_ELEMENT_THEORY":"SGP4","RA_OF_ASC_NODE":"346.2477","CENTER_NAME":"EARTH","OBJECT_NAME":"STARLINK-2312","TLE_LINE2":"2 47980  53.0565 346.2477 0001434  86.5140 273.6013 15.06399669 78655","REF_FRAME":"TEME","SEMIMAJOR_AXIS":"6925.350","APOAPSIS":"548.208","ARG_OF_PERICENTER":"86.5140","MEAN_ANOMALY":"273.6013","NORAD_CAT_ID":"47980","DECAY_DATE":null,"ECCENTRICITY":"0.00014340","FILE":"3535824","GP_ID":"210136896","EPHEMERIS_TYPE":"0","MEAN_MOTION_DDOT":"0.0000000000000","COUNTRY_CODE":"US","RCS_SIZE":"LARGE","SITE":"AFETR","MEAN_MOTION":"15.06399669","TLE_LINE1":"1 47980U 21024D   22225.55282956  .00000717  00000-0  67006-4 0  9990","PERIOD":"95.592","PERIAPSIS":"546.221","OBJECT_ID":"2021-024D","TIME_SYSTEM":"UTC","CLASSIFICATION_TYPE":"U","MEAN_MOTION_DOT":"0.00000717","OBJECT_TYPE":"PAYLOAD","INCLINATION":"53.0565","EPOCH":"2022-08-13T13:16:04.473984","BSTAR":"0.00006700600000","REV_AT_EPOCH":"7865"},{"OBJECT_TYPE":"PAYLOAD","INCLINATION":"53.0550","BSTAR":"0.00009302200000","EPOCH":"2022-08-13T20:22:39.127872","REV_AT_EPOCH":"7804","SITE":"AFETR","COUNTRY_CODE":"US","RCS_SIZE":"LARGE","PERIOD":"95.592","MEAN_MOTION":"15.06399178","TLE_LINE1":"1 47981U 21024E   22225.84906398  .00001104  00000-0  93022-4 0  9994","PERIAPSIS":"546.172","CLASSIFICATION_TYPE":"U","MEAN_MOTION_DOT":"0.00001104","OBJECT_ID":"2021-024E","TIME_SYSTEM":"UTC","NORAD_CAT_ID":"47981","ECCENTRICITY":"0.00015070","FILE":"3535825","DECAY_DATE":null,"EPHEMERIS_TYPE":"0","MEAN_MOTION_DDOT":"0.0000000000000","GP_ID":"210163855","LAUNCH_DATE":"2021-03-24","ELEMENT_SET_NO":"999","MEAN_ELEMENT_THEORY":"SGP4","CENTER_NAME":"EARTH","OBJECT_NAME":"STARLINK-2303","RA_OF_ASC_NODE":"69.7797","MEAN_ANOMALY":"276.3999","APOAPSIS":"548.260","ARG_OF_PERICENTER":"83.7162","REF_FRAME":"TEME","TLE_LINE2":"2 47981  53.0550  69.7797 0001507  83.7162 276.3999 15.06399178 78047","SEMIMAJOR_AXIS":"6925.351"},{"REV_AT_EPOCH":"7895","EPOCH":"2022-08-13T18:19:15.885984","BSTAR":"0.00031020000000","INCLINATION":"53.0559","OBJECT_TYPE":"PAYLOAD","OBJECT_ID":"2021-024F","TIME_SYSTEM":"UTC","MEAN_MOTION_DOT":"0.00004343","CLASSIFICATION_TYPE":"U","PERIAPSIS":"546.246","TLE_LINE1":"1 47982U 21024F   22225.76337831  .00004343  00000-0  31020-3 0  9993","MEAN_MOTION":"15.06409445","PERIOD":"95.592","RCS_SIZE":"LARGE","COUNTRY_CODE":"US","SITE":"AFETR","GP_ID":"210163605","EPHEMERIS_TYPE":"0","MEAN_MOTION_DDOT":"0.0000000000000","DECAY_DATE":null,"FILE":"3535825","ECCENTRICITY":"0.00013560","NORAD_CAT_ID":"47982","SEMIMAJOR_AXIS":"6925.320","TLE_LINE2":"2 47982  53.0559   0.1665 0001356  68.6826 291.4308 15.06409445 78952","REF_FRAME":"TEME","APOAPSIS":"548.124","MEAN_ANOMALY":"291.4308","ARG_OF_PERICENTER":"68.6826","RA_OF_ASC_NODE":"0.1665","OBJECT_NAME":"STARLINK-2317","CENTER_NAME":"EARTH","MEAN_ELEMENT_THEORY":"SGP4","ELEMENT_SET_NO":"999","LAUNCH_DATE":"2021-03-24"},{"NORAD_CAT_ID":"47985","EPHEMERIS_TYPE":"0","MEAN_MOTION_DDOT":"0.0000000000000","GP_ID":"210162353","ECCENTRICITY":"0.00012050","FILE":"3535825","DECAY_DATE":null,"MEAN_ELEMENT_THEORY":"SGP4","LAUNCH_DATE":"2021-03-24","ELEMENT_SET_NO":"999","MEAN_ANOMALY":"263.2495","APOAPSIS":"548.060","ARG_OF_PERICENTER":"96.8631","REF_FRAME":"TEME","TLE_LINE2":"2 47985  53.0553   5.3150 0001205  96.8631 263.2495 15.06396174 78874","SEMIMAJOR_AXIS":"6925.360","CENTER_NAME":"EARTH","OBJECT_NAME":"STARLINK-2308","RA_OF_ASC_NODE":"5.3150","OBJECT_TYPE":"PAYLOAD","INCLINATION":"53.0553","REV_AT_EPOCH":"7887","BSTAR":"0.00001184300000","EPOCH":"2022-08-13T18:26:35.426112","PERIOD":"95.592","MEAN_MOTION":"15.06396174","TLE_LINE1":"1 47985U 21024J   22225.76846558 -.00000105  00000-0  11843-4 0  9992","SITE":"AFETR","COUNTRY_CODE":"US","RCS_SIZE":"LARGE","CLASSIFICATION_TYPE":"U","MEAN_MOTION_DOT":"-0.00000105","OBJECT_ID":"2021-024J","TIME_SYSTEM":"UTC","PERIAPSIS":"546.391"},{"PERIOD":"90.485","MEAN_MOTION":"15.91427609","TLE_LINE1":"1 47988U 21024M   22225.91667824  .00204596  26618-4  62980-3 0  9992","SITE":"AFETR","COUNTRY_CODE":"US","RCS_SIZE":"LARGE","CLASSIFICATION_TYPE":"U","MEAN_MOTION_DOT":"0.00204596","OBJECT_ID":"2021-024M","TIME_SYSTEM":"UTC","PERIAPSIS":"295.724","OBJECT_TYPE":"PAYLOAD","INCLINATION":"53.0262","REV_AT_EPOCH":"130","BSTAR":"0.00062980000000","EPOCH":"2022-08-13T22:00:00.999936","MEAN_ELEMENT_THEORY":"SGP4","LAUNCH_DATE":"2021-03-24","ELEMENT_SET_NO":"999","APOAPSIS":"300.854","MEAN_ANOMALY":"28.1889","ARG_OF_PERICENTER":"10.6905","REF_FRAME":"TEME","TLE_LINE2":"2 47988  53.0262 301.5133 0003842  10.6905  28.1889 15.91427609  1304","SEMIMAJOR_AXIS":"6676.424","CENTER_NAME":"EARTH","OBJECT_NAME":"STARLINK-2306","RA_OF_ASC_NODE":"301.5133","NORAD_CAT_ID":"47988","EPHEMERIS_TYPE":"0","MEAN_MOTION_DDOT":"0.0000266180000","GP_ID":"210163104","ECCENTRICITY":"0.00038420","FILE":"3535825","DECAY_DATE":null}];
